SEEDS II (CO-66)        
1 32791U 08021J   26066.49972067  .00030386  00000+0  10796-2 0  9991
2 32791  97.7523  59.8387 0001763   7.0409 353.0854 15.28968125971736
YUBILEINY (RS30)        
1 32953U 08025A   26066.53493352  .00000031  00000+0  15330-3 0  9999
2 32953  82.4992  58.6630 0019459 169.9134 190.2340 12.43175979807065
FENGYUN 3A              
1 32958U 08026A   26066.40923263  .00000164  00000+0  98077-4 0  9997
2 32958  98.6796   9.1974 0009732  64.1705 296.0474 14.19545602920963
HUANJING 1A (HJ-1A)     
1 33320U 08041A   26066.61204883  .00000244  00000+0  35571-4 0  9990
2 33320  97.6635  56.4311 0020602 109.9571 250.3865 14.83708927943342
HUANJING 1B (HJ-1B)     
1 33321U 08041B   26066.60447740  .00001631  00000+0  20416-3 0  9993
2 33321  97.6479  59.8922 0036988 154.5246 205.7802 14.83096336943353
SHIJIAN-6 03A (SJ-6 03A)
1 33408U 08053A   26066.64218400  .00008084  00000+0  42350-3 0  9995
2 33408  97.8532  96.4533 0011790  10.3431 349.8041 15.16023943947579
SHIJIAN-6 03B (SJ-6 03B)
1 33409U 08053B   26066.64900530  .00004837  00000+0  35451-3 0  9994
2 33409  97.8665  84.8436 0020369  27.8132 332.4177 15.03856483947480
CHUANGXIN 1-02 (CX-1-02)
1 33434U 08056B   26066.64128047  .00000008  00000+0  19962-4 0  9996
2 33434  98.6249  93.8708 0015440  79.4835 280.8086 14.30129823904101
STARS (KUKAI)           
1 33498U 09002G   26066.30863374  .00007242  00000+0  66868-3 0  9993
2 33498  98.1463   9.5812 0009473 138.0714 222.1233 14.94906453923253
KKS-1 (KISEKI)          
1 33499U 09002H   26066.50794946  .00002489  00000+0  31441-3 0  9991
2 33499  98.1186 347.3703 0006423 259.4196 100.6294 14.82819953921128
NOAA 19                 
1 33591U 09005A   26066.61169762  .00000075  00000+0  63599-4 0  9990
2 33591  98.9610 137.3793 0012969 320.9566  39.0669 14.13456312880130
UK-DMC 2                
1 35683U 09041C   26066.60204278  .00001401  00000+0  21147-3 0  9991
2 35683  97.8653 204.1617 0001104  91.3474 268.7863 14.75845899891581
METEOR-M 1              
1 35865U 09049A   26066.48235369  .00000189  00000+0  10308-3 0  9991
2 35865  98.7272  29.7524 0001305 225.2030 134.9043 14.23130090854785
OCEANSAT-2              
1 35931U 09051A   26066.61746620  .00000169  00000+0  14120-3 0  9994
2 35931  98.2276  63.6379 0017138 157.5808 202.6111 13.99636990865125
SWISSCUBE               
1 35932U 09051B   26066.62995467  .00001813  00000+0  36923-3 0  9993
2 35932  98.4098 332.7362 0006934 158.7372 201.4118 14.62253623874317
BEESAT-1                
1 35933U 09051C   26066.31382181  .00001534  00000+0  31893-3 0  9994
2 35933  98.4030 332.2595 0005150 170.5890 189.5407 14.61527288874309
